{
  "type": "FeatureCollection",
  "features": [
    {
      "type": "Feature",
      "properties": {
        "norad_id": 34079,
        "name": "IRIDIUM 33 DEB",
        "group": "iridium-33-debris",
        "lat": 11.336959331871896,
        "lon": -172.8561623572497,
        "alt_km": 623.2593425594841,
        "timestamp": "2025-12-14T11:29:50.445392+00:00",
        "meta_object_name": "IRIDIUM 33 DEB",
        "meta_object_id": "1997-051CN",
        "meta_epoch": "2025-12-13T12:37:28.097760",
        "meta_mean_motion": 14.83566457,
        "meta_eccentricity": 0.00055381,
        "meta_inclination": 86.3782,
        "meta_ra_of_asc_node": 8.3047,
        "meta_arg_of_pericenter": 5.1607,
        "meta_mean_anomaly": 116.6242,
        "meta_ephemeris_type": 0,
        "meta_classification_type": "U",
        "meta_norad_cat_id": 34079,
        "meta_element_set_no": 999,
        "meta_rev_at_epoch": 88989,
        "meta_bstar": 0.0027283259,
        "meta_mean_motion_dot": 0.00022548,
        "meta_mean_motion_ddot": 0,
        "tle_line1": "1 34079U 97051CN  25347.52601965  .00022548  00000+0  27283-2 0  9994",
        "tle_line2": "2 34079  86.3782   8.3047 0005538   5.1607 116.6242 14.83566457889894"
      },
      "geometry": {
        "type": "Point",
        "coordinates": [
          -172.8561623572497,
          11.336959331871896
        ]
      }
    },
    {
      "type": "Feature",
      "properties": {
        "norad_id": 34088,
        "name": "IRIDIUM 33 DEB",
        "group": "iridium-33-debris",
        "lat": -50.84339244945096,
        "lon": 25.472698987873706,
        "alt_km": 603.3727540235968,
        "timestamp": "2025-12-14T11:29:50.445402+00:00",
        "meta_object_name": "IRIDIUM 33 DEB",
        "meta_object_id": "1997-051CX",
        "meta_epoch": "2025-12-13T15:20:46.536000",
        "meta_mean_motion": 14.91450641,
        "meta_eccentricity": 0.00058418,
        "meta_inclination": 86.3853,
        "meta_ra_of_asc_node": 30.3107,
        "meta_arg_of_pericenter": 173.407,
        "meta_mean_anomaly": 310.4314,
        "meta_ephemeris_type": 0,
        "meta_classification_type": "U",
        "meta_norad_cat_id": 34088,
        "meta_element_set_no": 999,
        "meta_rev_at_epoch": 88755,
        "meta_bstar": 0.0025953124,
        "meta_mean_motion_dot": 0.00026038,
        "meta_mean_motion_ddot": 0,
        "tle_line1": "1 34088U 97051CX  25347.63942750  .00026038  00000+0  25953-2 0  9996",
        "tle_line2": "2 34088  86.3853  30.3107 0005841 173.4070 310.4314 14.91450641887556"
      },
      "geometry": {
        "type": "Point",
        "coordinates": [
          25.472698987873706,
          -50.84339244945096
        ]
      }
    },
    {
      "type": "Feature",
      "properties": {
        "norad_id": 34091,
        "name": "IRIDIUM 33 DEB",
        "group": "iridium-33-debris",
        "lat": 74.74899571774442,
        "lon": 79.60956644751577,
        "alt_km": 635.8219748640058,
        "timestamp": "2025-12-14T11:29:50.445413+00:00",
        "meta_object_name": "IRIDIUM 33 DEB",
        "meta_object_id": "1997-051DA",
        "meta_epoch": "2025-12-13T15:42:43.747200",
        "meta_mean_motion": 14.81936713,
        "meta_eccentricity": 0.00333516,
        "meta_inclination": 86.3414,
        "meta_ra_of_asc_node": 66.4146,
        "meta_arg_of_pericenter": 289.9347,
        "meta_mean_anomaly": 69.8283,
        "meta_ephemeris_type": 0,
        "meta_classification_type": "U",
        "meta_norad_cat_id": 34091,
        "meta_element_set_no": 999,
        "meta_rev_at_epoch": 87880,
        "meta_bstar": 0.0045533762,
        "meta_mean_motion_dot": 0.00036581,
        "meta_mean_motion_ddot": 0,
        "tle_line1": "1 34091U 97051DA  25347.65467300  .00036581  00000+0  45534-2 0  9996",
        "tle_line2": "2 34091  86.3414  66.4146 0033351 289.9347  69.8283 14.81936713878809"
      },
      "geometry": {
        "type": "Point",
        "coordinates": [
          79.60956644751577,
          74.74899571774442
        ]
      }
    },
    {
      "type": "Feature",
      "properties": {
        "norad_id": 34097,
        "name": "IRIDIUM 33 DEB",
        "group": "iridium-33-debris",
        "lat": 28.98452424676362,
        "lon": 2.750284965738203,
        "alt_km": 724.5697843258731,
        "timestamp": "2025-12-14T11:29:50.445423+00:00",
        "meta_object_name": "IRIDIUM 33 DEB",
        "meta_object_id": "1997-051DG",
        "meta_epoch": "2025-12-13T11:55:54.924672",
        "meta_mean_motion": 14.34788744,
        "meta_eccentricity": 0.00825242,
        "meta_inclination": 86.201,
        "meta_ra_of_asc_node": 1.074,
        "meta_arg_of_pericenter": 359.7109,
        "meta_mean_anomaly": 0.4024,
        "meta_ephemeris_type": 0,
        "meta_classification_type": "U",
        "meta_norad_cat_id": 34097,
        "meta_element_set_no": 999,
        "meta_rev_at_epoch": 87130,
        "meta_bstar": 0.0022882091,
        "meta_mean_motion_dot": 6.762e-05,
        "meta_mean_motion_ddot": 0,
        "tle_line1": "1 34097U 97051DG  25347.49716348  .00006762  00000+0  22882-2 0  9992",
        "tle_line2": "2 34097  86.2010   1.0740 0082524 359.7109   0.4024 14.34788744871308"
      },
      "geometry": {
        "type": "Point",
        "coordinates": [
          2.750284965738203,
          28.98452424676362
        ]
      }
    },
    {
      "type": "Feature",
      "properties": {
        "norad_id": 34145,
        "name": "IRIDIUM 33 DEB",
        "group": "iridium-33-debris",
        "lat": -15.824300182527896,
        "lon": -29.32338519040656,
        "alt_km": 765.0545688241291,
        "timestamp": "2025-12-14T11:29:50.445433+00:00",
        "meta_object_name": "IRIDIUM 33 DEB",
        "meta_object_id": "1997-051DY",
        "meta_epoch": "2025-12-13T03:56:04.562016",
        "meta_mean_motion": 14.42295665,
        "meta_eccentricity": 0.00557423,
        "meta_inclination": 86.2121,
        "meta_ra_of_asc_node": 332.338,
        "meta_arg_of_pericenter": 92.4586,
        "meta_mean_anomaly": 268.2998,
        "meta_ephemeris_type": 0,
        "meta_classification_type": "U",
        "meta_norad_cat_id": 34145,
        "meta_element_set_no": 999,
        "meta_rev_at_epoch": 87644,
        "meta_bstar": 0.0018432555,
        "meta_mean_motion_dot": 6.217e-05,
        "meta_mean_motion_ddot": 0,
        "tle_line1": "1 34145U 97051DY  25347.16394169  .00006217  00000+0  18433-2 0  9995",
        "tle_line2": "2 34145  86.2121 332.3380 0055742  92.4586 268.2998 14.42295665876445"
      },
      "geometry": {
        "type": "Point",
        "coordinates": [
          -29.32338519040656,
          -15.824300182527896
        ]
      }
    },
    {
      "type": "Feature",
      "properties": {
        "norad_id": 34146,
        "name": "IRIDIUM 33 DEB",
        "group": "iridium-33-debris",
        "lat": 24.690340711232047,
        "lon": -9.255120546225157,
        "alt_km": 745.9230770881313,
        "timestamp": "2025-12-14T11:29:50.445443+00:00",
        "meta_object_name": "IRIDIUM 33 DEB",
        "meta_object_id": "1997-051DZ",
        "meta_epoch": "2025-12-13T11:13:31.173888",
        "meta_mean_motion": 14.49059499,
        "meta_eccentricity": 0.00255486,
        "meta_inclination": 86.284,
        "meta_ra_of_asc_node": 349.4792,
        "meta_arg_of_pericenter": 219.0483,
        "meta_mean_anomaly": 293.3614,
        "meta_ephemeris_type": 0,
        "meta_classification_type": "U",
        "meta_norad_cat_id": 34146,
        "meta_element_set_no": 999,
        "meta_rev_at_epoch": 88117,
        "meta_bstar": 0.0015372698,
        "meta_mean_motion_dot": 5.879e-05,
        "meta_mean_motion_ddot": 0,
        "tle_line1": "1 34146U 97051DZ  25347.46772192  .00005879  00000+0  15373-2 0  9998",
        "tle_line2": "2 34146  86.2840 349.4792 0025548 219.0483 293.3614 14.49059499881174"
      },
      "geometry": {
        "type": "Point",
        "coordinates": [
          -9.255120546225157,
          24.690340711232047
        ]
      }
    },
    {
      "type": "Feature",
      "properties": {
        "norad_id": 34159,
        "name": "IRIDIUM 33 DEB",
        "group": "iridium-33-debris",
        "lat": 33.69660193604724,
        "lon": 49.938449158417164,
        "alt_km": 768.3253819892634,
        "timestamp": "2025-12-14T11:29:50.445454+00:00",
        "meta_object_name": "IRIDIUM 33 DEB",
        "meta_object_id": "1997-051EN",
        "meta_epoch": "2025-12-13T15:18:25.992576",
        "meta_mean_motion": 14.38498063,
        "meta_eccentricity": 0.0026,
        "meta_inclination": 86.3513,
        "meta_ra_of_asc_node": 47.8583,
        "meta_arg_of_pericenter": 284.6423,
        "meta_mean_anomaly": 75.1892,
        "meta_ephemeris_type": 0,
        "meta_classification_type": "U",
        "meta_norad_cat_id": 34159,
        "meta_element_set_no": 999,
        "meta_rev_at_epoch": 87972,
        "meta_bstar": 0.00058950971,
        "meta_mean_motion_dot": 1.826e-05,
        "meta_mean_motion_ddot": 0,
        "tle_line1": "1 34159U 97051EN  25347.63780084  .00001826  00000+0  58951-3 0  9998",
        "tle_line2": "2 34159  86.3513  47.8583 0026000 284.6423  75.1892 14.38498063879723"
      },
      "geometry": {
        "type": "Point",
        "coordinates": [
          49.938449158417164,
          33.69660193604724
        ]
      }
    }
  ]
}